[{"OBJECT_NAME":"ATLAS CENTAUR 2","OBJECT_ID":"1963-047A","EPOCH":"2026-03-08T15:04:53.664960","MEAN_MOTION":14.12064183,"ECCENTRICITY":0.05477349,"INCLINATION":30.3512,"RA_OF_ASC_NODE":201.5734,"ARG_OF_PERICENTER":70.9333,"MEAN_ANOMALY":294.9758,"EPHEMERIS_TYPE":0,"CLASSIFICATION_TYPE":"U","NORAD_CAT_ID":694,"ELEMENT_SET_NO":999,"REV_AT_EPOCH":13147,"BSTAR":0.00023412363,"MEAN_MOTION_DOT":1.993e-5,"MEAN_MOTION_DDOT":0},{"OBJECT_NAME":"THOR AGENA D R/B","OBJECT_ID":"1964-002A","EPOCH":"2026-03-08T23:08:07.299168","MEAN_MOTION":14.34019615,"ECCENTRICITY":0.00319501,"INCLINATION":99.1226,"RA_OF_ASC_NODE":81.2619,"ARG_OF_PERICENTER":260.3186,"MEAN_ANOMALY":99.4388,"EPHEMERIS_TYPE":0,"CLASSIFICATION_TYPE":"U","NORAD_CAT_ID":733,"ELEMENT_SET_NO":999,"REV_AT_EPOCH":23819,"BSTAR":0.00011837206,"MEAN_MOTION_DOT":2.83e-6,"MEAN_MOTION_DDOT":0},{"OBJECT_NAME":"SL-3 R/B","OBJECT_ID":"1964-053B","EPOCH":"2026-03-08T22:32:20.701536","MEAN_MOTION":14.6136771,"ECCENTRICITY":0.00797463,"INCLINATION":65.0788,"RA_OF_ASC_NODE":333.4378,"ARG_OF_PERICENTER":292.4588,"MEAN_ANOMALY":66.8081,"EPHEMERIS_TYPE":0,"CLASSIFICATION_TYPE":"U","NORAD_CAT_ID":877,"ELEMENT_SET_NO":999,"REV_AT_EPOCH":26668,"BSTAR":9.9864363e-5,"MEAN_MOTION_DOT":3.91e-6,"MEAN_MOTION_DDOT":0},{"OBJECT_NAME":"SL-8 R/B","OBJECT_ID":"1967-045B","EPOCH":"2026-03-08T22:51:10.913760","MEAN_MOTION":14.45622248,"ECCENTRICITY":0.00641873,"INCLINATION":74.0141,"RA_OF_ASC_NODE":349.4663,"ARG_OF_PERICENTER":355.9094,"MEAN_ANOMALY":4.153,"EPHEMERIS_TYPE":0,"CLASSIFICATION_TYPE":"U","NORAD_CAT_ID":2802,"ELEMENT_SET_NO":999,"REV_AT_EPOCH":8891,"BSTAR":0.00015994836,"MEAN_MOTION_DOT":5.51e-6,"MEAN_MOTION_DDOT":0},{"OBJECT_NAME":"SL-8 R/B","OBJECT_ID":"1968-040B","EPOCH":"2026-03-08T18:40:16.634784","MEAN_MOTION":15.03253386,"ECCENTRICITY":0.00238565,"INCLINATION":74.0323,"RA_OF_ASC_NODE":315.5576,"ARG_OF_PERICENTER":139.8306,"MEAN_ANOMALY":220.4652,"EPHEMERIS_TYPE":0,"CLASSIFICATION_TYPE":"U","NORAD_CAT_ID":3230,"ELEMENT_SET_NO":999,"REV_AT_EPOCH":8987,"BSTAR":0.00034157365,"MEAN_MOTION_DOT":4.616e-5,"MEAN_MOTION_DDOT":0},{"OBJECT_NAME":"OAO 2","OBJECT_ID":"1968-110A","EPOCH":"2026-03-08T16:18:09.450720","MEAN_MOTION":14.47307488,"ECCENTRICITY":0.00057477,"INCLINATION":34.9928,"RA_OF_ASC_NODE":270.8653,"ARG_OF_PERICENTER":197.2044,"MEAN_ANOMALY":162.8453,"EPHEMERIS_TYPE":0,"CLASSIFICATION_TYPE":"U","NORAD_CAT_ID":3597,"ELEMENT_SET_NO":999,"REV_AT_EPOCH":1895,"BSTAR":0.00010722353,"MEAN_MOTION_DOT":3.79e-6,"MEAN_MOTION_DDOT":0},{"OBJECT_NAME":"ISIS 1","OBJECT_ID":"1969-009A","EPOCH":"2026-03-08T17:54:44.385984","MEAN_MOTION":11.30413971,"ECCENTRICITY":0.17078033,"INCLINATION":88.4543,"RA_OF_ASC_NODE":155.4115,"ARG_OF_PERICENTER":91.0645,"MEAN_ANOMALY":288.5571,"EPHEMERIS_TYPE":0,"CLASSIFICATION_TYPE":"U","NORAD_CAT_ID":3669,"ELEMENT_SET_NO":999,"REV_AT_EPOCH":34842,"BSTAR":0.00013229926,"MEAN_MOTION_DOT":2.09e-6,"MEAN_MOTION_DDOT":0},{"OBJECT_NAME":"SERT 2","OBJECT_ID":"1970-009A","EPOCH":"2026-03-08T19:31:32.471328","MEAN_MOTION":13.58729736,"ECCENTRICITY":0.00050119,"INCLINATION":99.2756,"RA_OF_ASC_NODE":10.9551,"ARG_OF_PERICENTER":157.8102,"MEAN_ANOMALY":256.9448,"EPHEMERIS_TYPE":0,"CLASSIFICATION_TYPE":"U","NORAD_CAT_ID":4327,"ELEMENT_SET_NO":999,"REV_AT_EPOCH":77977,"BSTAR":8.3968786e-5,"MEAN_MOTION_DOT":2.0e-7,"MEAN_MOTION_DDOT":0},{"OBJECT_NAME":"SL-3 R/B","OBJECT_ID":"1971-028B","EPOCH":"2026-03-08T22:49:43.856256","MEAN_MOTION":15.61057239,"ECCENTRICITY":0.00134538,"INCLINATION":81.2356,"RA_OF_ASC_NODE":52.9409,"ARG_OF_PERICENTER":288.6914,"MEAN_ANOMALY":71.2878,"EPHEMERIS_TYPE":0,"CLASSIFICATION_TYPE":"U","NORAD_CAT_ID":5118,"ELEMENT_SET_NO":999,"REV_AT_EPOCH":98855,"BSTAR":0.00059190982,"MEAN_MOTION_DOT":0.00050233,"MEAN_MOTION_DDOT":0},{"OBJECT_NAME":"ASTEX 1","OBJECT_ID":"1971-089A","EPOCH":"2026-03-08T18:54:16.432416","MEAN_MOTION":14.50768804,"ECCENTRICITY":0.00178522,"INCLINATION":92.7123,"RA_OF_ASC_NODE":151.4681,"ARG_OF_PERICENTER":88.5613,"MEAN_ANOMALY":271.7638,"EPHEMERIS_TYPE":0,"CLASSIFICATION_TYPE":"U","NORAD_CAT_ID":5560,"ELEMENT_SET_NO":999,"REV_AT_EPOCH":86217,"BSTAR":0.00015775059,"MEAN_MOTION_DOT":6.21e-6,"MEAN_MOTION_DDOT":0},{"OBJECT_NAME":"SL-8 R/B","OBJECT_ID":"1971-119B","EPOCH":"2026-03-08T19:44:24.060480","MEAN_MOTION":14.37835412,"ECCENTRICITY":0.05488549,"INCLINATION":73.8874,"RA_OF_ASC_NODE":177.3393,"ARG_OF_PERICENTER":144.1549,"MEAN_ANOMALY":219.7781,"EPHEMERIS_TYPE":0,"CLASSIFICATION_TYPE":"U","NORAD_CAT_ID":5730,"ELEMENT_SET_NO":999,"REV_AT_EPOCH":65536,"BSTAR":0.00080061575,"MEAN_MOTION_DOT":0.0001539,"MEAN_MOTION_DDOT":0},{"OBJECT_NAME":"OAO 3 (COPERNICUS)","OBJECT_ID":"1972-065A","EPOCH":"2026-03-08T16:56:37.059936","MEAN_MOTION":14.59997419,"ECCENTRICITY":0.00063417,"INCLINATION":35.0059,"RA_OF_ASC_NODE":302.9211,"ARG_OF_PERICENTER":158.9615,"MEAN_ANOMALY":239.7139,"EPHEMERIS_TYPE":0,"CLASSIFICATION_TYPE":"U","NORAD_CAT_ID":6153,"ELEMENT_SET_NO":999,"REV_AT_EPOCH":84605,"BSTAR":0.00010997057,"MEAN_MOTION_DOT":5.15e-6,"MEAN_MOTION_DDOT":0},{"OBJECT_NAME":"ATLAS CENTAUR R/B","OBJECT_ID":"1972-065B","EPOCH":"2026-03-08T00:06:12.691584","MEAN_MOTION":14.77682406,"ECCENTRICITY":0.00337363,"INCLINATION":35.0023,"RA_OF_ASC_NODE":315.6312,"ARG_OF_PERICENTER":354.6289,"MEAN_ANOMALY":5.4047,"EPHEMERIS_TYPE":0,"CLASSIFICATION_TYPE":"U","NORAD_CAT_ID":6155,"ELEMENT_SET_NO":999,"REV_AT_EPOCH":84101,"BSTAR":0.00024693881,"MEAN_MOTION_DOT":1.791e-5,"MEAN_MOTION_DDOT":0},{"OBJECT_NAME":"SL-8 R/B","OBJECT_ID":"1975-112B","EPOCH":"2026-03-08T22:43:07.098816","MEAN_MOTION":14.3820312,"ECCENTRICITY":0.00144546,"INCLINATION":74.0627,"RA_OF_ASC_NODE":20.2785,"ARG_OF_PERICENTER":113.8396,"MEAN_ANOMALY":246.4275,"EPHEMERIS_TYPE":0,"CLASSIFICATION_TYPE":"U","NORAD_CAT_ID":8459,"ELEMENT_SET_NO":999,"REV_AT_EPOCH":63176,"BSTAR":0.00011381375,"MEAN_MOTION_DOT":3.2e-6,"MEAN_MOTION_DDOT":0},{"OBJECT_NAME":"SL-3 R/B","OBJECT_ID":"1977-057B","EPOCH":"2026-03-08T22:36:31.336704","MEAN_MOTION":15.45470518,"ECCENTRICITY":0.0006171,"INCLINATION":97.5774,"RA_OF_ASC_NODE":239.8296,"ARG_OF_PERICENTER":288.4527,"MEAN_ANOMALY":71.605,"EPHEMERIS_TYPE":0,"CLASSIFICATION_TYPE":"U","NORAD_CAT_ID":10114,"ELEMENT_SET_NO":999,"REV_AT_EPOCH":66821,"BSTAR":0.00037061281,"MEAN_MOTION_DOT":0.00017689,"MEAN_MOTION_DDOT":0},{"OBJECT_NAME":"SEASAT 1","OBJECT_ID":"1978-064A","EPOCH":"2026-03-08T22:37:32.626272","MEAN_MOTION":14.4615963,"ECCENTRICITY":0.00022948,"INCLINATION":108.011,"RA_OF_ASC_NODE":123.9324,"ARG_OF_PERICENTER":286.4076,"MEAN_ANOMALY":73.6817,"EPHEMERIS_TYPE":0,"CLASSIFICATION_TYPE":"U","NORAD_CAT_ID":10967,"ELEMENT_SET_NO":999,"REV_AT_EPOCH":50640,"BSTAR":0.00013027581,"MEAN_MOTION_DOT":3.29e-6,"MEAN_MOTION_DDOT":0},{"OBJECT_NAME":"SL-14 R/B","OBJECT_ID":"1979-011B","EPOCH":"2026-03-08T13:47:11.396544","MEAN_MOTION":14.91906998,"ECCENTRICITY":0.00174513,"INCLINATION":82.521,"RA_OF_ASC_NODE":97.6295,"ARG_OF_PERICENTER":63.979,"MEAN_ANOMALY":296.3224,"EPHEMERIS_TYPE":0,"CLASSIFICATION_TYPE":"U","NORAD_CAT_ID":11267,"ELEMENT_SET_NO":999,"REV_AT_EPOCH":52861,"BSTAR":7.3335753e-5,"MEAN_MOTION_DOT":7.69e-6,"MEAN_MOTION_DDOT":0}]
