ATLAS CENTAUR 2         
1 00694U 63047A   26067.62839890  .00001993  00000+0  23412-3 0  9991
2 00694  30.3512 201.5734 0547734  70.9333 294.9758 14.12064183131472
THOR AGENA D R/B        
1 00733U 64002A   26067.96397337  .00000283  00000+0  11837-3 0  9998
2 00733  99.1226  81.2619 0031950 260.3186  99.4388 14.34019615238193
SL-3 R/B                
1 00877U 64053B   26067.93912849  .00000391  00000+0  99864-4 0  9998
2 00877  65.0788 333.4378 0079746 292.4588  66.8081 14.61367710266683
SL-8 R/B                
1 02802U 67045B   26067.95220965  .00000551  00000+0  15995-3 0  9995
2 02802  74.0141 349.4663 0064187 355.9094   4.1530 14.45622248 88914
SL-8 R/B                
1 03230U 68040B   26067.77797031  .00004616  00000+0  34157-3 0  9997
2 03230  74.0323 315.5576 0023856 139.8306 220.4652 15.03253386 89874
OAO 2                   
1 03597U 68110A   26067.67927605  .00000379  00000+0  10722-3 0  9996
2 03597  34.9928 270.8653 0005747 197.2044 162.8453 14.47307488 18950
ISIS 1                  
1 03669U 69009A   26067.74634706  .00000209  00000+0  13230-3 0  9998
2 03669  88.4543 155.4115 1707803  91.0645 288.5571 11.30413971348428
SERT 2                  
1 04327U 70009A   26067.81357027  .00000020  00000+0  83969-4 0  9996
2 04327  99.2756  10.9551 0005011 157.8102 256.9448 13.58729736779774
SL-3 R/B                
1 05118U 71028B   26067.95120204  .00050233  00000+0  59191-3 0  9997
2 05118  81.2356  52.9409 0013453 288.6914  71.2878 15.61057239988552
ASTEX 1                 
1 05560U 71089A   26067.78769019  .00000621  00000+0  15775-3 0  9995
2 05560  92.7123 151.4681 0017852  88.5613 271.7638 14.50768804862173
SL-8 R/B                
1 05730U 71119B   26067.82250070  .00015390  00000+0  80062-3 0  9995
2 05730  73.8874 177.3393 0548854 144.1549 219.7781 14.37835412655367
OAO 3 (COPERNICUS)      
1 06153U 72065A   26067.70598449  .00000515  00000+0  10997-3 0  9991
2 06153  35.0059 302.9211 0006341 158.9615 239.7139 14.59997419846051
ATLAS CENTAUR R/B       
1 06155U 72065B   26067.00431356  .00001791  00000+0  24694-3 0  9995
2 06155  35.0023 315.6312 0033736 354.6289   5.4047 14.77682406841011
SL-8 R/B                
1 08459U 75112B   26067.94660994  .00000320  00000+0  11381-3 0  9991
2 08459  74.0627  20.2785 0014454 113.8396 246.4275 14.38203120631764
SL-3 R/B                
1 10114U 77057B   26067.94202936  .00017689  00000+0  37061-3 0  9999
2 10114  97.5774 239.8296 0006171 288.4527  71.6050 15.45470518668210
SEASAT 1                
1 10967U 78064A   26067.94273873  .00000329  00000+0  13028-3 0  9992
2 10967 108.0110 123.9324 0002294 286.4076  73.6817 14.46159630506406
SL-14 R/B               
1 11267U 79011B   26067.57443746  .00000769  00000+0  73336-4 0  9993
2 11267  82.5210  97.6295 0017451  63.9790 296.3224 14.91906998528613
